{
  "norad_id": 66094,
  "name": "STARLINK-35528",
  "history": [
    {
      "epoch": "2026-03-28T22:30:55.651104Z",
      "apogee_km": 476.0709714610375,
      "perigee_km": 474.4020379451722,
      "latitude_deg": 7.997009421852875e-06,
      "longitude_deg": -149.76218661246173,
      "height_km": 475.3025444771904,
      "semi_major_axis_km": 6853.373504703104,
      "eccentricity": 0.00012176,
      "inclination_deg": 53.1605,
      "raan_deg": 14.3211,
      "arg_perigee_deg": 357.6923,
      "mean_anomaly_deg": 2.4072,
      "mean_motion_rev_day": 15.30192821
    },
    {
      "epoch": "2026-03-29T04:47:08.470176Z",
      "apogee_km": 476.0066553701208,
      "perigee_km": 474.43723617153864,
      "latitude_deg": -1.852664376486372e-05,
      "longitude_deg": 114.71287181023351,
      "height_km": 476.20330537170366,
      "semi_major_axis_km": 6853.358945770829,
      "eccentricity": 0.0001145,
      "inclination_deg": 53.1613,
      "raan_deg": 13.1071,
      "arg_perigee_deg": 96.0691,
      "mean_anomaly_deg": 264.044,
      "mean_motion_rev_day": 15.30197697
    },
    {
      "epoch": "2026-03-30T04:17:56.496768Z",
      "apogee_km": 476.03262185038784,
      "perigee_km": 474.4371568745437,
      "latitude_deg": -1.1646449572850373e-05,
      "longitude_deg": 116.49740815970497,
      "height_km": 476.03813092689535,
      "semi_major_axis_km": 6853.3718893624655,
      "eccentricity": 0.0001164,
      "inclination_deg": 53.1615,
      "raan_deg": 8.5574,
      "arg_perigee_deg": 83.1496,
      "mean_anomaly_deg": 276.9637,
      "mean_motion_rev_day": 15.30193362
    },
    {
      "epoch": "2026-03-30T04:17:56.497632Z",
      "apogee_km": 476.0329645189813,
      "perigee_km": 474.4368142059493,
      "latitude_deg": -1.6226553098417984e-05,
      "longitude_deg": 116.4974011376682,
      "height_km": 476.0380900550945,
      "semi_major_axis_km": 6853.3718893624655,
      "eccentricity": 0.00011645,
      "inclination_deg": 53.1615,
      "raan_deg": 8.5574,
      "arg_perigee_deg": 83.1496,
      "mean_anomaly_deg": 276.9637,
      "mean_motion_rev_day": 15.30193362
    },
    {
      "epoch": "2026-03-30T12:08:12.759936Z",
      "apogee_km": 476.13648400400234,
      "perigee_km": 474.3230831530673,
      "latitude_deg": -6.220423755288825e-05,
      "longitude_deg": -2.9101814249364564,
      "height_km": 476.0501847394183,
      "semi_major_axis_km": 6853.3667835785345,
      "eccentricity": 0.0001323,
      "inclination_deg": 53.1623,
      "raan_deg": 7.0395,
      "arg_perigee_deg": 85.0736,
      "mean_anomaly_deg": 275.0415,
      "mean_motion_rev_day": 15.30195072
    }
  ]
}